[ {"name": "STARLINK-35061", "line1": "1 66191U 25243Q   26163.29133324  .00017892  00000+0  61462-3 0  9992", "line2": "2 66191  53.1559 166.1256 0000902  86.2650 273.8454 15.30207212 35136"}, {"name": "STARLINK-34937", "line1": "1 66192U 25243R   26163.27952990  .00031586  00000+0  94212-3 0  9994", "line2": "2 66192  53.1593 166.0584 0001107  81.5353 278.5775 15.34397533 35132"}, {"name": "STARLINK-35197", "line1": "1 66193U 25243S   26163.25334105  .00022519  00000+0  76983-3 0  9996", "line2": "2 66193  53.1577 165.8893 0001309 102.0914 258.0234 15.30212944 35132"}, {"name": "STARLINK-35374", "line1": "1 66194U 25243T   26163.27396352  .00012091  00000+0  40056-3 0  9997", "line2": "2 66194  53.1576 165.3096 0001355  75.3792 284.7359 15.31715070 35143"}, {"name": "STARLINK-34813", "line1": "1 66195U 25243U   26163.25967525  .00011544  00000+0  40126-3 0  9992", "line2": "2 66195  53.1590 165.9310 0001412  75.3612 284.7545 15.30202280 35139"}, {"name": "STARLINK-35409", "line1": "1 66196U 25243V   26163.26284131  .00022439  00000+0  76711-3 0  9993", "line2": "2 66196  53.1583 165.9515 0001332  61.6230 298.4905 15.30213941 35132"}, {"name": "STARLINK-35259", "line1": "1 66197U 25243W   26163.26917268  .00016848  00000+0  57935-3 0  9992", "line2": "2 66197  53.1578 165.9895 0001496  82.0386 278.0784 15.30218595 35137"}, {"name": "STARLINK-35518", "line1": "1 66198U 25243X   26163.29766210  .00013829  00000+0  47796-3 0  9995", "line2": "2 66198  53.1558 166.1604 0001095  77.5699 282.5424 15.30213274 35138"}, {"name": "STARLINK-35509", "line1": "1 66199U 25243Y   26163.25228551  .00012691  00000+0  43985-3 0  9995", "line2": "2 66199  53.1560 165.8827 0001258 122.0067 238.1056 15.30202392 35138"}, {"name": "STARLINK-35551", "line1": "1 66200U 25243Z   26163.25545038  .00021403  00000+0  73242-3 0  9990", "line2": "2 66200  53.1575 165.9005 0001238 130.7614 229.3495 15.30211398 35133"}, {"name": "STARLINK-35543", "line1": "1 66201U 25243AA  26163.29263076  .00019951  00000+0  65260-3 0  9990", "line2": "2 66201  53.1564 165.4185 0001129  79.5324 280.5805 15.31717815 35144"}, {"name": "STARLINK-35534", "line1": "1 66202U 25243AB  26163.26178396  .00019841  00000+0  67987-3 0  9994", "line2": "2 66202  53.1586 165.9402 0001276  73.5773 286.5368 15.30216326 35130"}, {"name": "STARLINK-35548", "line1": "1 66203U 25243AC  26163.26495089  .00021039  00000+0  72030-3 0  9993", "line2": "2 66203  53.1565 165.9606 0001148  58.7771 301.3342 15.30206588 35132"}, {"name": "STARLINK-35490", "line1": "1 66204U 25243AD  26163.27128069  .00028044  00000+0  95460-3 0  9991", "line2": "2 66204  53.1580 166.0015 0001170  70.9011 289.2116 15.30227900 35138"}, {"name": "STARLINK-35748", "line1": "1 66206U 25244A   26163.22791248  .00029374  00000+0  87667-3 0  9991", "line2": "2 66206  53.1582 150.0942 0001338  83.1123 277.0032 15.34415115 36145"}, {"name": "STARLINK-35747", "line1": "1 66207U 25244B   26163.26367657  .00014412  00000+0  43684-3 0  9997", "line2": "2 66207  53.1569 150.2633 0001145  88.4476 271.6658 15.34399596 36143"}, {"name": "STARLINK-35751", "line1": "1 66208U 25244C   26163.19223102  .00024840  00000+0  74372-3 0  9990", "line2": "2 66208  53.1575 150.5764 0001194  73.1165 286.9969 15.34406218 36132"}, {"name": "STARLINK-35750", "line1": "1 66209U 25244D   26163.24263436  .00056025  00000+0  16542-2 0  9995", "line2": "2 66209  53.1597 150.1866 0001764  92.4150 267.7054 15.34452166 36143"}, {"name": "STARLINK-35740", "line1": "1 66210U 25244E   26163.23001544  .00026087  00000+0  78015-3 0  9995", "line2": "2 66210  53.1583 150.1049 0001425  81.2124 278.9040 15.34416052 36147"}, {"name": "STARLINK-35723", "line1": "1 66211U 25244F   26163.24894893  .00030658  00000+0  91456-3 0  9997", "line2": "2 66211  53.1576 150.2210 0000876 103.2998 256.8102 15.34408195 36136"}, {"name": "STARLINK-35710", "line1": "1 66212U 25244G   26163.25225830  .00034250  00000+0  11630-2 0  9995", "line2": "2 66212  53.1556 150.9489 0001117  79.5351 280.5776 15.30204039 36135"}, {"name": "STARLINK-34204", "line1": "1 66213U 25244H   26163.26164262  .00017070  00000+0  58708-3 0  9997", "line2": "2 66213  53.1561 150.2985 0001177  85.0936 275.0199 15.30202760 36141"}, {"name": "STARLINK-35714", "line1": "1 66214U 25244J   26163.26069896  .00013873  00000+0  47951-3 0  9990", "line2": "2 66214  53.1560 150.9997 0001136  81.3662 278.7467 15.30208968 36134"}, {"name": "STARLINK-35712", "line1": "1 66215U 25244K   26163.27324660  .00018264  00000+0  62706-3 0  9999", "line2": "2 66215  53.1564 150.3671 0001319 126.3932 233.7191 15.30209872 36146"}, {"name": "STARLINK-35709", "line1": "1 66216U 25244L   26163.24170555  .00027285  00000+0  92981-3 0  9990", "line2": "2 66216  53.1573 150.8871 0001216  82.2331 277.8808 15.30205739 36134"}, {"name": "STARLINK-35700", "line1": "1 66217U 25244M   26163.23537265  .00029299  00000+0  99686-3 0  9991", "line2": "2 66217  53.1578 150.8465 0001307  76.6007 283.5139 15.30218924 36127"}, {"name": "STARLINK-35722", "line1": "1 66218U 25244N   26163.23843139  .00031775  00000+0  94753-3 0  9994", "line2": "2 66218  53.1580 150.1571 0001140  75.7433 284.3696 15.34401807 36147"}, {"name": "STARLINK-35737", "line1": "1 66219U 25244P   26163.25105519  .00022209  00000+0  66644-3 0  9990", "line2": "2 66219  53.1576 150.2313 0001086  94.4944 265.6183 15.34402769 36143"}, {"name": "STARLINK-35677", "line1": "1 66220U 25244Q   26163.23634793  .00051877  00000+0  15357-2 0  9998", "line2": "2 66220  53.1605 150.1465 0001235  76.6387 283.4754 15.34405295 36143"}, {"name": "STARLINK-35704", "line1": "1 66221U 25244R   26163.23325598  .00014599  00000+0  50391-3 0  9997", "line2": "2 66221  53.1595 150.8339 0001474  84.7902 275.3267 15.30210796 36131"}, {"name": "STARLINK-35666", "line1": "1 66222U 25244S   26163.23642926  .00018519  00000+0  63573-3 0  9997", "line2": "2 66222  53.1579 150.8503 0001079  81.0800 279.0323 15.30203772 36135"}, {"name": "STARLINK-35664", "line1": "1 66223U 25244T   26163.24276019  .00027844  00000+0  94850-3 0  9998", "line2": "2 66223  53.1571 150.8889 0001175  78.4758 281.6375 15.30207196 36134"}, {"name": "STARLINK-35733", "line1": "1 66224U 25244U   26163.25648261  .00015690  00000+0  54093-3 0  9993", "line2": "2 66224  53.1562 150.9732 0001067  90.8488 269.2635 15.30189288 36133"}, {"name": "STARLINK-35734", "line1": "1 66225U 25244V   26163.23959035  .00018449  00000+0  63329-3 0  9993", "line2": "2 66225  53.1570 150.8673 0001297 130.0499 230.0616 15.30209537 36135"}, {"name": "STARLINK-34466", "line1": "1 66226U 25244W   26163.24053540  .00029818  00000+0  89007-3 0  9994", "line2": "2 66226  53.1591 150.1677 0001203  81.9060 278.2079 15.34401889 36147"}, {"name": "STARLINK-34882", "line1": "1 66227U 25244X   26163.25315488  .00025654  00000+0  76775-3 0  9990", "line2": "2 66227  53.1574 150.2384 0001298  39.6739 320.4358 15.34402355 36141"}, {"name": "STARLINK-35731", "line1": "1 66228U 25244Y   26163.23211996  .00028696  00000+0  85678-3 0  9999", "line2": "2 66228  53.1584 150.1106 0001483  49.7969 310.3163 15.34414557 36146"}, {"name": "STARLINK-35758", "line1": "1 66229U 25244Z   26163.24474026  .00034617  00000+0  10307-2 0  9992", "line2": "2 66229  53.1574 150.1871 0001151  88.8016 271.3119 15.34407317 36147"}, {"name": "STARLINK-35736", "line1": "1 66230U 25244AA  26163.23222495  .00030307  00000+0  10311-2 0  9991", "line2": "2 66230  53.1580 150.8177 0001180  69.1672 290.9455 15.30204034 36130"}, {"name": "STARLINK-35735", "line1": "1 66231U 25244AB  26163.27429848  .00017400  00000+0  59778-3 0  9997", "line2": "2 66231  53.1566 150.3701 0001951 152.1766 207.9340 15.30224746 36140"}, {"name": "STARLINK-35753", "line1": "1 66232U 25244AC  26163.25858629  .00022347  00000+0  76421-3 0  9999", "line2": "2 66232  53.1558 150.9808 0001202  78.8349 281.2787 15.30205651 36139"}, {"name": "STARLINK-35626", "line1": "1 66233U 25244AD  26163.25544393  .00015059  00000+0  51964-3 0  9997", "line2": "2 66233  53.1568 150.9625 0001794  82.7117 277.4088 15.30193334 36136"}, {"name": "STARLINK-35537", "line1": "1 66234U 25245A   26162.40228764  .00014718  00000+0  48497-3 0  9994", "line2": "2 66234  53.1579 207.9561 0001032  79.7591 280.3526 15.31707612 35611"}, {"name": "STARLINK-35541", "line1": "1 66235U 25245B   26163.29401724  .00016608  00000+0  57139-3 0  9995", "line2": "2 66235  53.1585 204.2732 0001461  67.4420 292.6735 15.30212779 35690"}, {"name": "STARLINK-35454", "line1": "1 66236U 25245C   26163.26352267  .00027279  00000+0  92893-3 0  9992", "line2": "2 66236  53.1570 204.7930 0001016  83.3520 276.7596 15.30229460 35574"}, {"name": "STARLINK-35557", "line1": "1 66237U 25245D   26163.25992121  .00029879  00000+0  89165-3 0  9997", "line2": "2 66237  53.1556 202.6429 0000812  79.2877 280.8217 15.34409851 35766"}, {"name": "STARLINK-35556", "line1": "1 66238U 25245E   26163.26202210  .00022411  00000+0  67170-3 0  9999", "line2": "2 66238  53.1569 202.6623 0000976 114.4961 245.6144 15.34435403 35764"}, {"name": "STARLINK-35554", "line1": "1 66239U 25245F   26162.72396604  .00022231  00000+0  72594-3 0  9997", "line2": "2 66239  53.1589 207.1142 0001220  89.5994 270.5147 15.31702956 35491"}, {"name": "STARLINK-35546", "line1": "1 66240U 25245G   26163.29295737  .00015911  00000+0  54797-3 0  9999", "line2": "2 66240  53.1587 204.2639 0001075  99.6656 260.4467 15.30212250 35748"}, {"name": "STARLINK-35497", "line1": "1 66241U 25245H   26163.28875727  .00015232  00000+0  52553-3 0  9996", "line2": "2 66241  53.1577 204.2353 0001084 103.0888 257.0233 15.30189766 35690"}, {"name": "STARLINK-35480", "line1": "1 66242U 25245J   26163.27618533  .00026309  00000+0  89691-3 0  9996", "line2": "2 66242  53.1561 204.8669 0001267 102.9987 257.1155 15.30212197 35735"}, {"name": "STARLINK-35495", "line1": "1 66243U 25245K   26163.28556332  .00029606  00000+0  10071-2 0  9994", "line2": "2 66243  53.1570 204.2153 0001780 137.7105 222.4034 15.30219575 35734"}]